H1 CPF  1  DGF 2022 07 05 11  6861 larets     NONE      
H2   304206 5557    27944 2022 07 05 00 00 00 2022 07 12 00 00 00    30 1 1  0 0 0
H5  0.0650
H9
10 0 59768  28800.000000  0         35068.643       6814950.621      -1834817.278
10 0 59768  28830.000000  0         82872.763       6753244.272      -2049300.567
10 0 59768  28860.000000  0        130307.174       6684466.346      -2261685.902
10 0 59768  28890.000000  0        177292.928       6608689.653      -2471756.241
10 0 59768  28920.000000  0        223751.888       6525994.501      -2679297.002
10 0 59768  28950.000000  0        269606.834       6436468.608      -2884096.299
10 0 59768  28980.000000  0        314781.579       6340206.996      -3085945.151
10 0 59768  29010.000000  0        359201.076       6237311.880      -3284637.707
10 0 59768  29040.000000  0        402791.529       6127892.547      -3479971.454
10 0 59768  29070.000000  0        445480.494       6012065.234      -3671747.426
10 0 59768  29100.000000  0        487196.991       5889952.987      -3859770.407
10 0 59768  29130.000000  0        527871.597       5761685.523      -4043849.131
10 0 59768  29160.000000  0        567436.551       5627399.076      -4223796.477
10 0 59768  29190.000000  0        605825.849       5487236.245      -4399429.656
10 0 59768  29220.000000  0        642975.336       5341345.829      -4570570.392
10 0 59768  29250.000000  0        678822.799       5189882.656      -4737045.103
10 0 59768  29280.000000  0        713308.056       5033007.409      -4898685.071
10 0 59768  29310.000000  0        746373.043       4870886.446      -5055326.610
10 0 59768  29340.000000  0        777961.889       4703691.612      -5206811.224
10 0 59768  29370.000000  0        808021.004       4531600.046      -5352985.765
10 0 59768  29400.000000  0        836499.147       4354793.985      -5493702.577
10 0 59768  29430.000000  0        863347.502       4173460.559      -5628819.642
10 0 59768  29460.000000  0        888519.741       3987791.591      -5758200.716
10 0 59768  29490.000000  0        911972.093       3797983.377      -5881715.460
10 0 59768  29520.000000  0        933663.405       3604236.476      -5999239.560
10 0 59768  29550.000000  0        953555.196       3406755.488      -6110654.845
10 0 59768  29580.000000  0        971611.716       3205748.832      -6215849.395
10 0 59768  29610.000000  0        987799.993       3001428.522      -6314717.643
10 0 59768  29640.000000  0       1002089.881       2794009.937      -6407160.474
10 0 59768  29670.000000  0       1014454.101       2583711.595      -6493085.308
10 0 59768  29700.000000  0       1024868.279       2370754.918      -6572406.188
10 0 59768  29730.000000  0       1033310.983       2155364.003      -6645043.857
10 0 59768  29760.000000  0       1039763.751       1937765.383      -6710925.831
10 0 59768  29790.000000  0       1044211.121       1718187.787      -6769986.469
10 0 59768  29820.000000  0       1046640.650       1496861.897      -6822167.023
10 0 59768  29850.000000  0       1047042.934       1274020.106      -6867415.695
10 0 59768  29880.000000  0       1045411.623       1049896.279      -6905687.673
10 0 59768  29910.000000  0       1041743.435        824725.511      -6936945.178
10 0 59768  29940.000000  0       1036038.160        598743.875      -6961157.493
10 0 59768  29970.000000  0       1028298.666        372188.183      -6978300.986
10 0 59768  30000.000000  0       1018530.894        145295.735      -6988359.135
10 0 59768  30030.000000  0       1006743.852        -81695.924      -6991322.529
10 0 59768  30060.000000  0        992949.608       -308549.252      -6987188.877
10 0 59768  30090.000000  0        977163.276       -535026.948      -6975963.004
10 0 59768  30120.000000  0        959402.996       -760892.200      -6957656.846
10 0 59768  30150.000000  0        939689.918       -985908.924      -6932289.431
10 0 59768  30180.000000  0        918048.176      -1209842.007      -6899886.862
10 0 59768  30210.000000  0        894504.857      -1432457.549      -6860482.291
10 0 59768  30240.000000  0        869089.973      -1653523.095      -6814115.884
10 0 59768  30270.000000  0        841836.421      -1872807.877      -6760834.786
10 0 59768  30300.000000  0        812779.951      -2090083.047      -6700693.082
10 0 59768  30330.000000  0        781959.114      -2305121.921      -6633751.748
10 0 59768  30360.000000  0        749415.221      -2517700.211      -6560078.591
10 0 59768  30390.000000  0        715192.285      -2727596.262      -6479748.189
10 0 59768  30420.000000  0        679336.968      -2934591.282      -6392841.817
10 0 59768  30450.000000  0        641898.519      -3138469.569      -6299447.366
10 0 59768  30480.000000  0        602928.714      -3339018.735      -6199659.257
10 0 59768  30510.000000  0        562481.792      -3536029.924      -6093578.355
10 0 59768  30540.000000  0        520614.384      -3729298.030      -5981311.872
10 0 59768  30570.000000  0        477385.446      -3918621.912      -5862973.264
10 0 59768  30600.000000  0        432856.178      -4103804.600      -5738682.124
10 0 59768  30630.000000  0        387089.952      -4284653.509      -5608564.071
10 0 59768  30660.000000  0        340152.225      -4460980.638      -5472750.629
10 0 59768  30690.000000  0        292110.453      -4632602.767      -5331379.103
10 0 59768  30720.000000  0        243034.009      -4799341.659      -5184592.443
10 0 59768  30750.000000  0        192994.085      -4961024.241      -5032539.110
10 0 59768  30780.000000  0        142063.604      -5117482.797      -4875372.934
10 0 59768  30810.000000  0         90317.118      -5268555.146      -4713252.959
10 0 59768  30840.000000  0         37830.716      -5414084.811      -4546343.293
10 0 59768  30870.000000  0        -15318.085      -5553921.198      -4374812.944
10 0 59768  30900.000000  0        -69050.439      -5687919.750      -4198835.650
10 0 59768  30930.000000  0       -123286.275      -5815942.104      -4018589.717
10 0 59768  30960.000000  0       -177944.410      -5937856.245      -3834257.831
10 0 59768  30990.000000  0       -232942.655      -6053536.645      -3646026.887
10 0 59768  31020.000000  0       -288197.929      -6162864.402      -3454087.798
10 0 59768  31050.000000  0       -343626.370      -6265727.369      -3258635.306
10 0 59768  31080.000000  0       -399143.453      -6362020.279      -3059867.789
10 0 59768  31110.000000  0       -454664.104      -6451644.862      -2857987.062
10 0 59768  31140.000000  0       -510102.819      -6534509.956      -2653198.167
10 0 59768  31170.000000  0       -565373.779      -6610531.605      -2445709.170
10 0 59768  31200.000000  0       -620390.976      -6679633.153      -2235730.945
10 0 59768  31230.000000  0       -675068.328      -6741745.329      -2023476.957
10 0 59768  31260.000000  0       -729319.797      -6796806.319      -1809163.047
10 0 59768  31290.000000  0       -783059.519      -6844761.839      -1593007.208
10 0 59768  31320.000000  0       -836201.915      -6885565.189      -1375229.360
10 0 59768  31350.000000  0       -888661.817      -6919177.310      -1156051.124
10 0 59768  31380.000000  0       -940354.591      -6945566.820       -935695.595
10 0 59768  31410.000000  0       -991196.253      -6964710.050       -714387.106
10 0 59768  31440.000000  0      -1041103.590      -6976591.064       -492351.000
10 0 59768  31470.000000  0      -1089994.282      -6981201.682       -269813.396
10 0 59768  31500.000000  0      -1137787.017      -6978541.479        -47000.955
10 0 59768  31530.000000  0      -1184401.613      -6968617.791        175859.355
10 0 59768  31560.000000  0      -1229759.132      -6951445.699        398540.498
10 0 59768  31590.000000  0      -1273781.995      -6927048.011        620815.603
10 0 59768  31620.000000  0      -1316394.097      -6895455.235        842458.204
10 0 59768  31650.000000  0      -1357520.921      -6856705.539       1063242.470
10 0 59768  31680.000000  0      -1397089.641      -6810844.705       1282943.450
10 0 59768  31710.000000  0      -1435029.238      -6757926.074       1501337.296
10 0 59768  31740.000000  0      -1471270.599      -6698010.482       1718201.508
10 0 59768  31770.000000  0      -1505746.623      -6631166.187       1933315.154
10 0 59768  31800.000000  0      -1538392.324      -6557468.788       2146459.110
10 0 59768  31830.000000  0      -1569144.921      -6477001.131       2357416.278
10 0 59768  31860.000000  0      -1597943.943      -6389853.218       2565971.816
10 0 59768  31890.000000  0      -1624731.316      -6296122.097       2771913.357
10 0 59768  31920.000000  0      -1649451.451      -6195911.748       2975031.230
10 0 59768  31950.000000  0      -1672051.333      -6089332.964       3175118.677
10 0 59768  31980.000000  0      -1692480.598      -5976503.219       3371972.061
10 0 59768  32010.000000  0      -1710691.616      -5857546.532       3565391.074
10 0 59768  32040.000000  0      -1726639.561      -5732593.325       3755178.942
10 0 59768  32070.000000  0      -1740282.488      -5601780.272       3941142.624
10 0 59768  32100.000000  0      -1751581.397      -5465250.144       4123093.003
10 0 59768  32130.000000  0      -1760500.299      -5323151.648       4300845.080
10 0 59768  32160.000000  0      -1767006.279      -5175639.261       4474218.156
10 0 59768  32190.000000  0      -1771069.550      -5022873.055       4643036.018
10 0 59768  32220.000000  0      -1772663.511      -4865018.521       4807127.116
10 0 59768  32250.000000  0      -1771764.789      -4702246.381       4966324.734
10 0 59768  32280.000000  0      -1768353.292      -4534732.403       5120467.158
10 0 59768  32310.000000  0      -1762412.243      -4362657.195       5269397.841
10 0 59768  32340.000000  0      -1753928.222      -4186206.013       5412965.557
10 0 59768  32370.000000  0      -1742891.193      -4005568.545       5551024.545
99
